GALAXY 3C (G-3C)        
1 27445U 02030A   26163.24598468 -.00000139  00000+0  00000+0 0  9993
2 27445   3.7178  78.0421 0001613  34.3470 141.8954  1.00271042 46441
INTELSAT 906 (IS-906)   
1 27513U 02041A   26163.20650184  .00000025  00000+0  00000+0 0  9994
2 27513   5.7906  72.9834 0004654   1.8926 324.1348  1.00271938 86971
NIMIQ 2                 
1 27632U 02062A   26163.24149552 -.00000061  00000+0  00000+0 0  9996
2 27632   9.4345  56.9519 0005456  20.5010 160.8653  1.00271682 44138
USA 167                 
1 27691U 03008A   26162.48331678  .00000012  00000+0  00000+0 0  9994
2 27691  10.9496  43.4583 0003729 312.9054 315.7463  1.00273193  6717
USA 169 (MILSTAR-2 4)   
1 27711U 03012A   26162.93831409 -.00000226  00000+0  00000+0 0  9997
2 27711  12.3413  29.8828 0100758   8.9028 351.3819  1.00269382 32892
ASIASAT 4               
1 27718U 03014A   26162.63378094 -.00000208  00000+0  00000+0 0  9999
2 27718   4.6908  75.8160 0002989   6.9278 192.9399  1.00271737 45246
HELLAS-SAT 2            
1 27811U 03020A   26162.97768428 -.00000073  00000+0  00000+0 0  9991
2 27811   7.3413  67.9452 0002426  15.8232 158.4996  1.00271116 42790
OPTUS C1                
1 27831U 03028B   26162.59072505 -.00000139  00000+0  00000+0 0  9996
2 27831   6.8750  69.4762 0005539   9.4690 189.3750  1.00273073 53007
USA 170                 
1 27875U 03040A   26161.93300463  .00000137  00000+0  00000+0 0  9999
2 27875  10.4865  48.0055 0001908  38.2819 173.2406  1.00277806 32937
GALAXY 13 (HORIZONS-1)  
1 27954U 03044A   26163.16385095  .00000147  00000+0  00000+0 0  9993
2 27954   1.4071  83.9292 0002344 335.8198 109.7490  1.00276404 46526
YAMAL 202               
1 28089U 03053A   26162.55530934 -.00000067  00000+0  00000+0 0  9991
2 28089   6.3302  71.0084 0003244  11.7486 180.6247  1.00270983 82641
UFO 11 (USA 174)        
1 28117U 03057A   26163.13708300 -.00000097  00000+0  00000+0 0  9999
2 28117   8.9293  33.8543 0002612  51.4162 300.1345  1.00274450 82399
USA 176 (DSP 22)        
1 28158U 04004A   26162.97340249 -.00000286  00000+0  00000+0 0  9992
2 28158  12.0550  26.1076 0001239 290.9902 243.8917  1.00406369 32881
ABS-4 (MOBISAT-1)       
1 28184U 04007A   26163.20650184  .00000051  00000+0  00000+0 0  9992
2 28184   6.0297  72.0679 0005186   6.7212 317.0433  1.00272314 52286
INTELSAT 10-02          
1 28358U 04022A   26163.26462604  .00000003  00000+0  00000+0 0  9993
2 28358   0.0120 312.5005 0000344 331.5790  70.7738  1.00263180 80502
ANIK F2                 
1 28378U 04027A   26163.24277800 -.00000036  00000+0  00000+0 0  9997
2 28378   3.2738  79.5103 0004057   5.7152 151.6229  1.00271217 41219
AMC-15                  
1 28446U 04041A   26163.24399133 -.00000073  00000+0  00000+0 0  9994
2 28446   0.0229 317.3293 0002143 133.1316 152.9135  1.00271587 79255
NSS-10                  
1 28526U 05003A   26163.26600980 -.00000241  00000+0  00000+0 0  9996
2 28526   6.4367  70.5113 0002702   1.6042 246.8038  1.00271506 53104
INMARSAT 4-F1           
1 28628U 05009A   26162.87235043  .00000045  00000+0  00000+0 0  9996
2 28628   5.1610  42.7441 0002533  40.9906 308.6451  1.00271752 77617
DIRECTV 8               
1 28659U 05019A   26163.24121799  .00000017  00000+0  00000+0 0  9994
2 28659   0.0197  59.3785 0002810  24.6265 144.3566  1.00270666 77025
GALAXY 28 (G-28)        
1 28702U 05022A   26163.25942602 -.00000187  00000+0  00000+0 0  9991
2 28702   3.2865  78.9934 0002868 359.6756 248.2169  1.00271650 51921
THAICOM 4               
1 28786U 05028A   26163.28846596 -.00000347  00000+0  00000+0 0  9995
2 28786   0.2323  85.9401 0001673 349.9583  48.0737  1.00269876 52205
ANIK F1R                
1 28868U 05036A   26163.24355800 -.00000061  00000+0  00000+0 0  9997
2 28868   4.2995  76.6385 0004015   2.1011 162.2391  1.00265299 46405
SYRACUSE 3A             
1 28885U 05041B   26162.91760066  .00000142  00000+0  00000+0 0  9998
2 28885   4.6299  75.9025 0003063 344.8198 216.5081  1.00272744 75697
INMARSAT 4-F2           
1 28899U 05044A   26162.98725299 -.00000248  00000+0  00000+0 0  9990
2 28899   5.0873  43.7029 0002837  34.9086 320.6193  1.00271888 75467
METEOSAT-9 (MSG-2)      
1 28912U 05049B   26162.84606965  .00000133  00000+0  00000+0 0  9996
2 28912   9.3488  54.2186 0001583 346.4858 209.7216  1.00269859  6943
EUTELSAT 174A           
1 28924U 05052A   26162.53864214  .00000023  00000+0  00000+0 0  9990
2 28924   4.2045  76.5949 0006200   4.1315 187.0364  1.00270050 52274
ECHOSTAR 10             
1 28935U 06003A   26163.24295133 -.00000040  00000+0  00000+0 0  9996
2 28935   0.0182 333.6783 0001575  80.6497 183.5251  1.00270502 74413
SPAINSAT                
1 28945U 06007A   26162.36255694 -.00000200  00000+0  00000+0 0  9999
2 28945   0.5473  86.6305 0004744 352.3155 281.1182  1.00271302 74156
JCSAT-5A                
1 29045U 06010A   26163.29097931 -.00000313  00000+0  00000+0 0  9991
2 29045   1.0961  84.2655 0001881  12.9241  40.2318  1.00271435 73726
ASTRA 1KR               
1 29055U 06012A   26163.26852606  .00000134  00000+0  00000+0 0  9999
2 29055   0.4605  83.1963 0003334 352.7931 300.2703  1.00269354 45645
