OBJECT_NAME,OBJECT_ID,EPOCH,MEAN_MOTION,ECCENTRICITY,INCLINATION,RA_OF_ASC_NODE,ARG_OF_PERICENTER,MEAN_ANOMALY,EPHEMERIS_TYPE,CLASSIFICATION_TYPE,NORAD_CAT_ID,ELEMENT_SET_NO,REV_AT_EPOCH,BSTAR,MEAN_MOTION_DOT,MEAN_MOTION_DDOT
GALAXY 3C (G-3C),2002-030A,2026-06-12T05:54:13.076352,1.00271042,.00016134,3.7178,78.0421,34.3470,141.8954,0,U,27445,999,4644,0,-.139E-5,0
INTELSAT 906 (IS-906),2002-041A,2026-06-12T04:57:21.758976,1.00271938,.00046543,5.7906,72.9834,1.8926,324.1348,0,U,27513,999,8697,0,.25E-6,0
NIMIQ 2,2002-062A,2026-06-12T05:47:45.212928,1.00271682,.00054565,9.4345,56.9519,20.5010,160.8653,0,U,27632,999,4413,0,-.61E-6,0
USA 167,2003-008A,2026-06-11T11:35:58.569792,1.00273193,.0003729,10.9496,43.4583,312.9054,315.7463,0,U,27691,999,671,0,.12E-6,0
USA 169 (MILSTAR-2 4),2003-012A,2026-06-11T22:31:10.337376,1.00269382,.01007589,12.3413,29.8828,8.9028,351.3819,0,U,27711,999,3289,0,-.226E-5,0
ASIASAT 4,2003-014A,2026-06-11T15:12:38.673216,1.00271737,.00029896,4.6908,75.8160,6.9278,192.9399,0,U,27718,999,4524,0,-.208E-5,0
HELLAS-SAT 2,2003-020A,2026-06-11T23:27:51.921792,1.00271116,.00024264,7.3413,67.9452,15.8232,158.4996,0,U,27811,999,4279,0,-.73E-6,0
OPTUS C1,2003-028B,2026-06-11T14:10:38.644320,1.00273073,.00055391,6.8750,69.4762,9.4690,189.3750,0,U,27831,999,5300,0,-.139E-5,0
USA 170,2003-040A,2026-06-10T22:23:31.600032,1.00277806,.00019086,10.4865,48.0055,38.2819,173.2406,0,U,27875,999,3293,0,.137E-5,0
GALAXY 13 (HORIZONS-1),2003-044A,2026-06-12T03:55:56.722080,1.00276404,.00023446,1.4071,83.9292,335.8198,109.7490,0,U,27954,999,4652,0,.147E-5,0
YAMAL 202,2003-053A,2026-06-11T13:19:38.726976,1.00270983,.0003244,6.3302,71.0084,11.7486,180.6247,0,U,28089,999,8264,0,-.67E-6,0
UFO 11 (USA 174),2003-057A,2026-06-12T03:17:23.971200,1.00274450,.00026123,8.9293,33.8543,51.4162,300.1345,0,U,28117,999,8239,0,-.97E-6,0
USA 176 (DSP 22),2004-004A,2026-06-11T23:21:41.975136,1.00406369,.0001239,12.0550,26.1076,290.9902,243.8917,0,U,28158,999,3288,0,-.286E-5,0
ABS-4 (MOBISAT-1),2004-007A,2026-06-12T04:57:21.758976,1.00272314,.0005186,6.0297,72.0679,6.7212,317.0433,0,U,28184,999,5228,0,.51E-6,0
INTELSAT 10-02,2004-022A,2026-06-12T06:21:03.689856,1.00263180,.00003441,0.0120,312.5005,331.5790,70.7738,0,U,28358,999,8050,0,.3E-7,0
ANIK F2,2004-027A,2026-06-12T05:49:36.019200,1.00271217,.00040575,3.2738,79.5103,5.7152,151.6229,0,U,28378,999,4121,0,-.36E-6,0
AMC-15,2004-041A,2026-06-12T05:51:20.850912,1.00271587,.0002143,0.0229,317.3293,133.1316,152.9135,0,U,28446,999,7925,0,-.73E-6,0
NSS-10,2005-003A,2026-06-12T06:23:03.246720,1.00271506,.00027021,6.4367,70.5113,1.6042,246.8038,0,U,28526,999,5310,0,-.241E-5,0
INMARSAT 4-F1,2005-009A,2026-06-11T20:56:11.077152,1.00271752,.00025338,5.1610,42.7441,40.9906,308.6451,0,U,28628,999,7761,0,.45E-6,0
DIRECTV 8,2005-019A,2026-06-12T05:47:21.234336,1.00270666,.00028102,0.0197,59.3785,24.6265,144.3566,0,U,28659,999,7702,0,.17E-6,0
GALAXY 28 (G-28),2005-022A,2026-06-12T06:13:34.408128,1.00271650,.00028686,3.2865,78.9934,359.6756,248.2169,0,U,28702,999,5192,0,-.187E-5,0
THAICOM 4,2005-028A,2026-06-12T06:55:23.458944,1.00269876,.00016739,0.2323,85.9401,349.9583,48.0737,0,U,28786,999,5220,0,-.347E-5,0
ANIK F1R,2005-036A,2026-06-12T05:50:43.411200,1.00265299,.00040159,4.2995,76.6385,2.1011,162.2391,0,U,28868,999,4640,0,-.61E-6,0
SYRACUSE 3A,2005-041B,2026-06-11T22:01:20.697024,1.00272744,.00030635,4.6299,75.9025,344.8198,216.5081,0,U,28885,999,7569,0,.142E-5,0
INMARSAT 4-F2,2005-044A,2026-06-11T23:41:38.658336,1.00271888,.0002837,5.0873,43.7029,34.9086,320.6193,0,U,28899,999,7546,0,-.248E-5,0
METEOSAT-9 (MSG-2),2005-049B,2026-06-11T20:18:20.417760,1.00269859,.00015838,9.3488,54.2186,346.4858,209.7216,0,U,28912,999,694,0,.133E-5,0
EUTELSAT 174A,2005-052A,2026-06-11T12:55:38.680896,1.00270050,.00062,4.2045,76.5949,4.1315,187.0364,0,U,28924,999,5227,0,.23E-6,0
ECHOSTAR 10,2006-003A,2026-06-12T05:49:50.994912,1.00270502,.0001575,0.0182,333.6783,80.6497,183.5251,0,U,28935,999,7441,0,-.4E-6,0
SPAINSAT,2006-007A,2026-06-11T08:42:04.919616,1.00271302,.0004744,0.5473,86.6305,352.3155,281.1182,0,U,28945,999,7415,0,-.2E-5,0
JCSAT-5A,2006-010A,2026-06-12T06:59:00.612384,1.00271435,.00018818,1.0961,84.2655,12.9241,40.2318,0,U,29045,999,7372,0,-.313E-5,0
ASTRA 1KR,2006-012A,2026-06-12T06:26:40.651584,1.00269354,.00033341,0.4605,83.1963,352.7931,300.2703,0,U,29055,999,4564,0,.134E-5,0
